{
    "CCSDS_OMM_VERS": "3.0",
    "COMMENT": "GENERATED VIA SPACE-TRACK.ORG API",
    "CREATION_DATE": "2025-11-22T18:56:57",
    "ORIGINATOR": "18 SPCS",
    "OBJECT_NAME": "GALILEO 28 (224)",
    "OBJECT_ID": "2021-116B",
    "CENTER_NAME": "EARTH",
    "REF_FRAME": "TEME",
    "TIME_SYSTEM": "UTC",
    "MEAN_ELEMENT_THEORY": "SGP4",
    "EPOCH": "2025-11-22T08:02:15.403200",
    "MEAN_MOTION": "1.70476295",
    "ECCENTRICITY": "0.00038769",
    "INCLINATION": "57.2249",
    "RA_OF_ASC_NODE": "347.2640",
    "ARG_OF_PERICENTER": "247.2257",
    "MEAN_ANOMALY": "115.5015",
    "EPHEMERIS_TYPE": "0",
    "CLASSIFICATION_TYPE": "U",
    "NORAD_CAT_ID": "49810",
    "ELEMENT_SET_NO": "999",
    "REV_AT_EPOCH": "2468",
    "BSTAR": "0.00000000000000",
    "MEAN_MOTION_DOT": "-0.00000068",
    "MEAN_MOTION_DDOT": "0.0000000000000",
    "SEMIMAJOR_AXIS": "29600.054",
    "PERIOD": "844.692",
    "APOAPSIS": "23233.395",
    "PERIAPSIS": "23210.444",
    "OBJECT_TYPE": "PAYLOAD",
    "RCS_SIZE": "LARGE",
    "COUNTRY_CODE": "ESA",
    "LAUNCH_DATE": "2021-12-05",
    "SITE": "FRGUI",
    "DECAY_DATE": null,
    "FILE": "4894246",
    "GP_ID": "303256612",
    "TLE_LINE0": "0 GALILEO 28 (224)",
    "TLE_LINE1": "1 49810U 21116B   25326.33490050 -.00000068  00000-0  00000-0 0  9990",
    "TLE_LINE2": "2 49810  57.2249 347.2640 0003877 247.2257 115.5015  1.70476295 24682"
}